CCSDS_OMM_VERS = 2.0
CREATION_DATE  = 
ORIGINATOR     = 

OBJECT_NAME    = SOYUZ-MS 28
OBJECT_ID      = 2025-275A
CENTER_NAME    = EARTH
REF_FRAME      = TEME
TIME_SYSTEM    = UTC
MEAN_ELEMENT_THEORY = SGP/SGP4

EPOCH          = 2026-01-01T18:58:54.170400
MEAN_MOTION    = 15.49013666
ECCENTRICITY   = .0007502
INCLINATION    = 51.6329
RA_OF_ASC_NODE = 43.1850
ARG_OF_PERICENTER = 328.5908
MEAN_ANOMALY   = 31.4631

EPHEMERIS_TYPE = 0
CLASSIFICATION_TYPE = U
NORAD_CAT_ID   = 66664
ELEMENT_SET_NO = 999
REV_AT_EPOCH   = 54596
BSTAR          = .26338E-3
MEAN_MOTION_DOT = .14103E-3
MEAN_MOTION_DDOT = 0

CCSDS_OMM_VERS = 2.0
CREATION_DATE  = 
ORIGINATOR     = 

OBJECT_NAME    = 1998-067XS
OBJECT_ID      = 1998-067XS
CENTER_NAME    = EARTH
REF_FRAME      = TEME
TIME_SYSTEM    = UTC
MEAN_ELEMENT_THEORY = SGP/SGP4

EPOCH          = 2026-01-01T13:44:51.902016
MEAN_MOTION    = 15.51757321
ECCENTRICITY   = .0002498
INCLINATION    = 51.6323
RA_OF_ASC_NODE = 43.9794
ARG_OF_PERICENTER = 307.6709
MEAN_ANOMALY   = 52.4054

EPHEMERIS_TYPE = 0
CLASSIFICATION_TYPE = U
NORAD_CAT_ID   = 66906
ELEMENT_SET_NO = 999
REV_AT_EPOCH   = 469
BSTAR          = .66629E-3
MEAN_MOTION_DOT = .40223E-3
MEAN_MOTION_DDOT = 0

CCSDS_OMM_VERS = 2.0
CREATION_DATE  = 
ORIGINATOR     = 

OBJECT_NAME    = 1998-067XT
OBJECT_ID      = 1998-067XT
CENTER_NAME    = EARTH
REF_FRAME      = TEME
TIME_SYSTEM    = UTC
MEAN_ELEMENT_THEORY = SGP/SGP4

EPOCH          = 2026-01-02T03:04:41.843712
MEAN_MOTION    = 15.54385656
ECCENTRICITY   = .0003907
INCLINATION    = 51.6312
RA_OF_ASC_NODE = 40.9390
ARG_OF_PERICENTER = 353.0267
MEAN_ANOMALY   = 7.0669

EPHEMERIS_TYPE = 0
CLASSIFICATION_TYPE = U
NORAD_CAT_ID   = 66907
ELEMENT_SET_NO = 999
REV_AT_EPOCH   = 478
BSTAR          = .15131E-2
MEAN_MOTION_DOT = .101951E-2
MEAN_MOTION_DDOT = 0

CCSDS_OMM_VERS = 2.0
CREATION_DATE  = 
ORIGINATOR     = 

OBJECT_NAME    = 1998-067XU
OBJECT_ID      = 1998-067XU
CENTER_NAME    = EARTH
REF_FRAME      = TEME
TIME_SYSTEM    = UTC
MEAN_ELEMENT_THEORY = SGP/SGP4

EPOCH          = 2026-01-02T03:03:07.043040
MEAN_MOTION    = 15.54347368
ECCENTRICITY   = .0003953
INCLINATION    = 51.6300
RA_OF_ASC_NODE = 40.9310
ARG_OF_PERICENTER = 349.1199
MEAN_ANOMALY   = 10.9706

EPHEMERIS_TYPE = 0
CLASSIFICATION_TYPE = U
NORAD_CAT_ID   = 66908
ELEMENT_SET_NO = 999
REV_AT_EPOCH   = 478
BSTAR          = .15033E-2
MEAN_MOTION_DOT = .101141E-2
MEAN_MOTION_DDOT = 0

CCSDS_OMM_VERS = 2.0
CREATION_DATE  = 
ORIGINATOR     = 

OBJECT_NAME    = SILVERSAT
OBJECT_ID      = 1998-067XV
CENTER_NAME    = EARTH
REF_FRAME      = TEME
TIME_SYSTEM    = UTC
MEAN_ELEMENT_THEORY = SGP/SGP4

EPOCH          = 2026-01-02T02:57:56.582784
MEAN_MOTION    = 15.54849160
ECCENTRICITY   = .0004043
INCLINATION    = 51.6303
RA_OF_ASC_NODE = 40.9076
ARG_OF_PERICENTER = 356.0931
MEAN_ANOMALY   = 4.0028

EPHEMERIS_TYPE = 0
CLASSIFICATION_TYPE = U
NORAD_CAT_ID   = 66909
ELEMENT_SET_NO = 999
REV_AT_EPOCH   = 478
BSTAR          = .16502E-2
MEAN_MOTION_DOT = .113309E-2
MEAN_MOTION_DDOT = 0

CCSDS_OMM_VERS = 2.0
CREATION_DATE  = 
ORIGINATOR     = 

OBJECT_NAME    = 1998-067XW
OBJECT_ID      = 1998-067XW
CENTER_NAME    = EARTH
REF_FRAME      = TEME
TIME_SYSTEM    = UTC
MEAN_ELEMENT_THEORY = SGP/SGP4

EPOCH          = 2026-01-01T13:03:30.863808
MEAN_MOTION    = 15.54525863
ECCENTRICITY   = .0003274
INCLINATION    = 51.6307
RA_OF_ASC_NODE = 43.7876
ARG_OF_PERICENTER = 324.6151
MEAN_ANOMALY   = 35.4622

EPHEMERIS_TYPE = 0
CLASSIFICATION_TYPE = U
NORAD_CAT_ID   = 66910
ELEMENT_SET_NO = 999
REV_AT_EPOCH   = 469
BSTAR          = .16086E-2
MEAN_MOTION_DOT = .10907E-2
MEAN_MOTION_DDOT = 0

CCSDS_OMM_VERS = 2.0
CREATION_DATE  = 
ORIGINATOR     = 

OBJECT_NAME    = 1998-067XX
OBJECT_ID      = 1998-067XX
CENTER_NAME    = EARTH
REF_FRAME      = TEME
TIME_SYSTEM    = UTC
MEAN_ELEMENT_THEORY = SGP/SGP4

EPOCH          = 2026-01-01T09:48:30.269088
MEAN_MOTION    = 15.55275272
ECCENTRICITY   = .0003115
INCLINATION    = 51.6313
RA_OF_ASC_NODE = 44.3841
ARG_OF_PERICENTER = 337.3069
MEAN_ANOMALY   = 22.7784

EPHEMERIS_TYPE = 0
CLASSIFICATION_TYPE = U
NORAD_CAT_ID   = 66911
ELEMENT_SET_NO = 999
REV_AT_EPOCH   = 466
BSTAR          = .16421E-2
MEAN_MOTION_DOT = .114538E-2
MEAN_MOTION_DDOT = 0

CCSDS_OMM_VERS = 2.0
CREATION_DATE  = 
ORIGINATOR     = 

OBJECT_NAME    = 1998-067XY
OBJECT_ID      = 1998-067XY
CENTER_NAME    = EARTH
REF_FRAME      = TEME
TIME_SYSTEM    = UTC
MEAN_ELEMENT_THEORY = SGP/SGP4

EPOCH          = 2026-01-02T03:17:21.132096
MEAN_MOTION    = 15.53431066
ECCENTRICITY   = .0003773
INCLINATION    = 51.6316
RA_OF_ASC_NODE = 40.9983
ARG_OF_PERICENTER = 341.2098
MEAN_ANOMALY   = 18.8753

EPHEMERIS_TYPE = 0
CLASSIFICATION_TYPE = U
NORAD_CAT_ID   = 66912
ELEMENT_SET_NO = 999
REV_AT_EPOCH   = 477
BSTAR          = .12053E-2
MEAN_MOTION_DOT = .78094E-3
MEAN_MOTION_DDOT = 0

